NAVSTAR 77 (USA 289)    
1 43873U 18109A   23340.58923490  .00000078  00000+0  00000+0 0  9999
2 43873  55.2270 128.6796 0027630 190.3040 131.6676  2.00571887 36548
